{
  "norad_id": 66008,
  "name": "STARLINK-35236",
  "history": [
    {
      "epoch": "2026-04-12T20:14:51.854208Z",
      "apogee_km": 475.97364418734014,
      "perigee_km": 474.4796109165345,
      "latitude_deg": -4.790444901037803e-05,
      "longitude_deg": 160.58293587020324,
      "height_km": 476.13557492759804,
      "semi_major_axis_km": 6853.3636275519375,
      "eccentricity": 0.000109,
      "inclination_deg": 53.1586,
      "raan_deg": 305.342,
      "arg_perigee_deg": 90.8263,
      "mean_anomaly_deg": 269.2862,
      "mean_motion_rev_day": 15.30196129
    },
    {
      "epoch": "2026-04-14T20:50:30.738912Z",
      "apogee_km": 475.8075744350308,
      "perigee_km": 474.5945335994693,
      "latitude_deg": -1.6598527343623182e-05,
      "longitude_deg": 140.26905121872463,
      "height_km": 475.9564722593072,
      "semi_major_axis_km": 6853.33805401725,
      "eccentricity": 8.85e-05,
      "inclination_deg": 53.1571,
      "raan_deg": 295.9358,
      "arg_perigee_deg": 76.3724,
      "mean_anomaly_deg": 283.7375,
      "mean_motion_rev_day": 15.30204694
    },
    {
      "epoch": "2026-04-15T18:47:15.444096Z",
      "apogee_km": 476.26087876452857,
      "perigee_km": 474.1473083712717,
      "latitude_deg": -4.2067209444153795e-06,
      "longitude_deg": 165.93171063227388,
      "height_km": 476.2762708885363,
      "semi_major_axis_km": 6853.341093567899,
      "eccentricity": 0.0001542,
      "inclination_deg": 53.1605,
      "raan_deg": 291.686,
      "arg_perigee_deg": 99.4988,
      "mean_anomaly_deg": 260.6187,
      "mean_motion_rev_day": 15.30203676
    },
    {
      "epoch": "2026-04-16T18:18:03.540672Z",
      "apogee_km": 476.38190800178836,
      "perigee_km": 474.01750683772843,
      "latitude_deg": -1.5441804857378224e-05,
      "longitude_deg": 167.71394234948275,
      "height_km": 476.39276791392274,
      "semi_major_axis_km": 6853.336707419759,
      "eccentricity": 0.0001725,
      "inclination_deg": 53.1598,
      "raan_deg": 287.1343,
      "arg_perigee_deg": 104.4784,
      "mean_anomaly_deg": 255.6408,
      "mean_motion_rev_day": 15.30205145
    },
    {
      "epoch": "2026-04-17T19:22:54.448896Z",
      "apogee_km": 476.13080293787516,
      "perigee_km": 474.2669697102292,
      "latitude_deg": 1.6379121090220953e-05,
      "longitude_deg": 145.61851766380843,
      "height_km": 476.2724476082375,
      "semi_major_axis_km": 6853.335886324052,
      "eccentricity": 0.00013598,
      "inclination_deg": 53.1598,
      "raan_deg": 282.281,
      "arg_perigee_deg": 100.8612,
      "mean_anomaly_deg": 259.2542,
      "mean_motion_rev_day": 15.3020542
    },
    {
      "epoch": "2026-04-18T04:47:13.685280Z",
      "apogee_km": 476.04522094631284,
      "perigee_km": 474.31791053500456,
      "latitude_deg": 1.7902563669592504e-05,
      "longitude_deg": 2.3313036898446975,
      "height_km": 476.1419698344661,
      "semi_major_axis_km": 6853.318565740658,
      "eccentricity": 0.00012602,
      "inclination_deg": 53.1603,
      "raan_deg": 280.4602,
      "arg_perigee_deg": 94.1352,
      "mean_anomaly_deg": 265.9793,
      "mean_motion_rev_day": 15.30211221
    },
    {
      "epoch": "2026-04-19T19:58:33.147840Z",
      "apogee_km": 476.4074009404958,
      "perigee_km": 473.9045783406782,
      "latitude_deg": -2.8391239108909382e-05,
      "longitude_deg": 125.30674979872093,
      "height_km": 475.82358610778005,
      "semi_major_axis_km": 6853.292989640587,
      "eccentricity": 0.0001826,
      "inclination_deg": 53.1598,
      "raan_deg": 272.8762,
      "arg_perigee_deg": 79.4216,
      "mean_anomaly_deg": 280.699,
      "mean_motion_rev_day": 15.30219787
    },
    {
      "epoch": "2026-04-20T03:48:49.093920Z",
      "apogee_km": 476.6139636864682,
      "perigee_km": 473.8320477929392,
      "latitude_deg": 2.327048295366857e-05,
      "longitude_deg": 5.900160246030596,
      "height_km": 476.02338214011627,
      "semi_major_axis_km": 6853.360005739703,
      "eccentricity": 0.00020296,
      "inclination_deg": 53.1604,
      "raan_deg": 271.3579,
      "arg_perigee_deg": 86.015,
      "mean_anomaly_deg": 274.1083,
      "mean_motion_rev_day": 15.30197342
    },
    {
      "epoch": "2026-04-21T20:34:12.633024Z",
      "apogee_km": 475.5236461812792,
      "perigee_km": 474.87806175543574,
      "latitude_deg": 2.2073757033151675e-05,
      "longitude_deg": 104.99316408725079,
      "height_km": 476.159287184594,
      "semi_major_axis_km": 6853.337853968357,
      "eccentricity": 4.71e-05,
      "inclination_deg": 53.156,
      "raan_deg": 263.4728,
      "arg_perigee_deg": 100.6633,
      "mean_anomaly_deg": 259.4421,
      "mean_motion_rev_day": 15.30204761
    },
    {
      "epoch": "2026-04-22T16:56:54.435840Z",
      "apogee_km": 476.6933891091048,
      "perigee_km": 473.6505199332978,
      "latitude_deg": 4.383145715487223e-06,
      "longitude_deg": 154.5348642522688,
      "height_km": 475.73827877341535,
      "semi_major_axis_km": 6853.3089545212015,
      "eccentricity": 0.000222,
      "inclination_deg": 53.1589,
      "raan_deg": 259.5256,
      "arg_perigee_deg": 77.4591,
      "mean_anomaly_deg": 282.6658,
      "mean_motion_rev_day": 15.3021444
    },
    {
      "epoch": "2026-04-23T02:21:13.435488Z",
      "apogee_km": 475.61622987030387,
      "perigee_km": 474.78080827053054,
      "latitude_deg": -5.9216464923733694e-06,
      "longitude_deg": 11.250229456651653,
      "height_km": 475.775281689363,
      "semi_major_axis_km": 6853.335519070417,
      "eccentricity": 6.095e-05,
      "inclination_deg": 53.1556,
      "raan_deg": 257.7064,
      "arg_perigee_deg": 39.5672,
      "mean_anomaly_deg": 320.5373,
      "mean_motion_rev_day": 15.30205543
    },
    {
      "epoch": "2026-04-24T17:32:33.330912Z",
      "apogee_km": 475.77753321967157,
      "perigee_km": 474.5658682413814,
      "latitude_deg": 1.9614145511188943e-05,
      "longitude_deg": 134.2254193366621,
      "height_km": 475.62236751836514,
      "semi_major_axis_km": 6853.308700730526,
      "eccentricity": 8.84e-05,
      "inclination_deg": 53.1587,
      "raan_deg": 250.1239,
      "arg_perigee_deg": 42.2885,
      "mean_anomaly_deg": 317.8184,
      "mean_motion_rev_day": 15.30214525
    },
    {
      "epoch": "2026-04-25T17:03:21.106080Z",
      "apogee_km": 475.9673758682284,
      "perigee_km": 474.5117186895859,
      "latitude_deg": 5.51163517715422e-05,
      "longitude_deg": 136.00882658487453,
      "height_km": 475.86314536179907,
      "semi_major_axis_km": 6853.376547278906,
      "eccentricity": 0.0001062,
      "inclination_deg": 53.1574,
      "raan_deg": 245.572,
      "arg_perigee_deg": 67.8361,
      "mean_anomaly_deg": 292.2753,
      "mean_motion_rev_day": 15.30191802
    },
    {
      "epoch": "2026-04-26T15:00:06.016032Z",
      "apogee_km": 476.1129520250561,
      "perigee_km": 474.2661175904559,
      "latitude_deg": -8.549532870152043e-06,
      "longitude_deg": 161.67437235540714,
      "height_km": 476.09575728590346,
      "semi_major_axis_km": 6853.326534807756,
      "eccentricity": 0.00013474,
      "inclination_deg": 53.1589,
      "raan_deg": 241.326,
      "arg_perigee_deg": 90.5192,
      "mean_anomaly_deg": 269.5963,
      "mean_motion_rev_day": 15.30208552
    },
    {
      "epoch": "2026-04-27T14:30:54.285408Z",
      "apogee_km": 475.96512821909255,
      "perigee_km": 474.3025247165924,
      "latitude_deg": -2.6276000910927347e-05,
      "longitude_deg": 163.4547760929886,
      "height_km": 475.69013785260466,
      "semi_major_axis_km": 6853.270826467842,
      "eccentricity": 0.0001213,
      "inclination_deg": 53.1584,
      "raan_deg": 236.7732,
      "arg_perigee_deg": 65.7194,
      "mean_anomaly_deg": 294.3933,
      "mean_motion_rev_day": 15.3022721
    },
    {
      "epoch": "2026-04-28T14:01:42.433824Z",
      "apogee_km": 476.1711257318775,
      "perigee_km": 474.31248939926627,
      "latitude_deg": 2.269974355370101e-05,
      "longitude_deg": 165.2415349424206,
      "height_km": 475.94842717265783,
      "semi_major_axis_km": 6853.378807565572,
      "eccentricity": 0.0001356,
      "inclination_deg": 53.1596,
      "raan_deg": 232.2262,
      "arg_perigee_deg": 78.1188,
      "mean_anomaly_deg": 281.9965,
      "mean_motion_rev_day": 15.30191045
    },
    {
      "epoch": "2026-04-29T13:32:30.086304Z",
      "apogee_km": 476.0524024237402,
      "perigee_km": 474.3441400740285,
      "latitude_deg": 7.965109484550494e-06,
      "longitude_deg": 167.0254180797994,
      "height_km": 475.8598285747665,
      "semi_major_axis_km": 6853.335271248884,
      "eccentricity": 0.00012463,
      "inclination_deg": 53.1618,
      "raan_deg": 227.6743,
      "arg_perigee_deg": 73.9033,
      "mean_anomaly_deg": 286.2105,
      "mean_motion_rev_day": 15.30205626
    },
    {
      "epoch": "2026-04-30T13:03:17.948736Z",
      "apogee_km": 475.88270391437345,
      "perigee_km": 474.5268387783308,
      "latitude_deg": 9.59485955556777e-06,
      "longitude_deg": 168.8082356326898,
      "height_km": 476.0617908133351,
      "semi_major_axis_km": 6853.341771346352,
      "eccentricity": 9.892e-05,
      "inclination_deg": 53.1623,
      "raan_deg": 223.1222,
      "arg_perigee_deg": 86.4747,
      "mean_anomaly_deg": 273.6367,
      "mean_motion_rev_day": 15.30203449
    },
    {
      "epoch": "2026-05-02T05:48:41.359104Z",
      "apogee_km": 476.5128742009765,
      "perigee_km": 473.94697362466286,
      "latitude_deg": -7.542632385122295e-06,
      "longitude_deg": -92.10023252870637,
      "height_km": 476.07986586531854,
      "semi_major_axis_km": 6853.366923912819,
      "eccentricity": 0.0001872,
      "inclination_deg": 53.1615,
      "raan_deg": 215.2351,
      "arg_perigee_deg": 87.8806,
      "mean_anomaly_deg": 272.2409,
      "mean_motion_rev_day": 15.30195025
    }
  ]
}